OBJECT_NAME,OBJECT_ID,EPOCH,MEAN_MOTION,ECCENTRICITY,INCLINATION,RA_OF_ASC_NODE,ARG_OF_PERICENTER,MEAN_ANOMALY,EPHEMERIS_TYPE,CLASSIFICATION_TYPE,NORAD_CAT_ID,ELEMENT_SET_NO,REV_AT_EPOCH,BSTAR,MEAN_MOTION_DOT,MEAN_MOTION_DDOT
COSMOS 2058,1990-010A,2026-06-15T14:43:14.169216,15.12004106,.00093797,82.4675,310.9064,6.5779,353.5572,0,U,20465,999,95703,.21211061E-3,.3673E-4,0
SL-14 R/B,1990-010B,2026-06-15T11:33:46.675872,14.83645262,.0019233,82.5016,175.5465,342.0593,17.9940,0,U,20466,999,94298,.35719196E-4,.319E-5,0
SL-14 R/B,1990-018B,2026-06-15T11:00:32.129280,14.82215056,.00173454,82.5210,131.7232,126.9928,233.2877,0,U,20511,999,93706,.37117145E-4,.32E-5,0
HST,1990-037B,2026-06-15T02:55:52.021632,15.30726834,.00018775,28.4718,94.6872,120.6716,239.4066,0,U,20580,999,78825,.18362174E-3,.5845E-4,0
SL-16 R/B,1990-046B,2026-06-15T12:49:27.496992,14.15026017,.0013447,70.9998,92.4194,164.2329,195.9215,0,U,20625,999,86223,.1150918E-3,.175E-5,0
COSMOS 2084,1990-055A,2026-06-15T14:25:10.231968,15.06110553,.00055688,62.7909,1.5057,276.6706,83.3760,0,U,20663,999,95106,.13975284E-3,.1852E-4,0
SL-6 R/B(2),1990-055D,2026-06-15T14:04:41.947968,15.03998499,.00403947,62.7824,280.8231,4.9051,355.2435,0,U,20666,999,95291,.11073679E-3,.1356E-4,0
SL-8 R/B,1990-078B,2026-06-15T10:50:28.089600,14.92249020,.03513832,82.9002,163.2126,44.3117,318.5661,0,U,20775,999,82386,.50004715E-3,.17759E-3,0
SL-8 R/B,1991-006B,2026-06-15T13:27:04.136256,13.77505741,.00236244,82.9424,97.2438,118.8787,53.8409,0,U,21088,999,77754,.30573078E-4,.46E-6,0
OKEAN-3,1991-039A,2026-06-15T14:38:02.351616,15.05316907,.00142215,82.5158,241.9107,3.9963,356.1374,0,U,21397,999,87976,.1625713E-3,.2358E-4,0
COSMOS 2151,1991-042A,2026-06-15T14:13:17.829408,15.00434229,.00138362,82.4960,349.2201,88.7563,271.5246,0,U,21422,999,87787,.11947595E-3,.1532E-4,0
SL-14 R/B,1991-042B,2026-06-15T09:32:10.731552,14.81901450,.00154583,82.4927,128.5740,281.3732,78.5745,0,U,21423,999,86754,.35840211E-4,.307E-5,0
ERS-1,1991-050A,2026-06-15T13:35:14.381088,14.39517145,.00307154,98.7798,187.2245,271.9523,87.8146,0,U,21574,999,82981,.10885664E-3,.295E-5,0
ARIANE 40 R/B,1991-050F,2026-06-15T14:13:40.352160,14.42956231,.00041988,98.1876,215.0718,124.7489,235.4098,0,U,21610,999,83311,.84207378E-4,.24E-5,0
INTERCOSMOS 25,1991-086A,2026-06-14T11:17:45.095712,12.12192313,.14841129,82.6052,251.4538,268.2589,74.8557,0,U,21819,999,50841,.11849233E-3,.594E-5,0
SL-8 R/B,1992-008B,2026-06-15T14:38:35.950848,13.75976520,.00337356,82.9263,194.9602,219.2116,258.0793,0,U,21876,999,72288,.126646E-3,.138E-5,0
SL-8 R/B,1992-020B,2026-06-15T13:10:45.814368,13.75548652,.00298318,82.9306,81.0741,27.0551,145.9349,0,U,21938,999,71458,.50641103E-4,.64E-6,0
USA 81,1992-023A,2026-06-15T11:00:21.947040,14.32397757,.00027655,85.0076,75.0051,86.0909,274.0600,0,U,21949,999,10878,.48319187E-4,.151E-5,0
COSMOS 2219,1992-076A,2026-06-15T10:07:56.467776,14.14097903,.00165159,71.0577,173.7616,47.0235,313.2269,0,U,22219,999,73219,.14590695E-3,.231E-5,0
SL-16 R/B,1992-076B,2026-06-15T14:52:20.993952,14.16871654,.00146254,71.0004,342.0832,300.6840,129.4727,0,U,22220,999,73570,.85601195E-4,.124E-5,0
COSMOS 2221,1992-080A,2026-06-15T12:49:23.604672,14.96529468,.0013144,82.5031,185.3482,218.1326,141.8967,0,U,22236,999,79542,.10696234E-3,.1243E-4,0
SL-16 R/B,1992-093B,2026-06-15T09:43:14.949696,14.15462073,.00040672,71.0198,159.1328,191.5261,168.5769,0,U,22285,999,72698,-.1317739E-3,-.305E-5,0
COSMOS 2228,1992-094A,2026-06-15T13:13:19.504416,14.97581369,.00170431,82.5174,143.6101,338.0845,21.9646,0,U,22286,999,79070,.15459226E-3,.1836E-4,0
SL-16 R/B,1993-016B,2026-06-15T14:19:37.671456,14.15313291,.00103051,71.0084,9.5476,185.7174,174.3833,0,U,22566,999,71602,.18434724E-3,.312E-5,0
COSMOS 2242,1993-024A,2026-06-15T10:37:35.473152,14.96898533,.00155139,82.5180,173.2119,342.4446,17.6238,0,U,22626,999,79501,.12476802E-3,.1461E-4,0
SL-16 R/B,1993-059B,2026-06-15T10:38:02.502528,14.17248127,.00151582,70.9887,164.9817,56.9481,303.3096,0,U,22803,999,69338,.50831558E-4,.55E-6,0
ARIANE 40 R/B,1993-061H,2026-06-15T14:23:03.747552,14.32907335,.00105576,98.4820,233.4893,1.0820,359.0386,0,U,22830,999,70812,.74059749E-4,.159E-5,0
COSMOS 2278,1994-023A,2026-06-15T13:11:22.864416,14.14397683,.00106074,71.0549,330.3512,245.1615,114.8405,0,U,23087,999,65864,.10252008E-3,.149E-5,0
SL-16 R/B,1994-023B,2026-06-15T13:14:58.650144,14.15024291,.00028792,70.9994,225.3653,187.7857,172.3221,0,U,23088,999,65993,.18627252E-3,.313E-5,0
SL-16 R/B,1994-074B,2026-06-15T14:26:30.779232,14.79501176,.00050941,97.6991,193.3888,260.4685,213.6705,0,U,23343,999,70172,.52656696E-4,.344E-5,0
