COSMOS 2058             
1 20465U 90010A   26166.61335844  .00003673  00000+0  21211-3 0  9990
2 20465  82.4675 310.9064 0009379   6.5779 353.5572 15.12004106957030
SL-14 R/B               
1 20466U 90010B   26166.48179023  .00000319  00000+0  35719-4 0  9994
2 20466  82.5016 175.5465 0019233 342.0593  17.9940 14.83645262942982
SL-14 R/B               
1 20511U 90018B   26166.45870520  .00000320  00000+0  37117-4 0  9996
2 20511  82.5210 131.7232 0017345 126.9928 233.2877 14.82215056937066
HST                     
1 20580U 90037B   26166.12212988  .00005845  00000+0  18362-3 0  9992
2 20580  28.4718  94.6872 0001877 120.6716 239.4066 15.30726834788258
SL-16 R/B               
1 20625U 90046B   26166.53434603  .00000175  00000+0  11509-3 0  9994
2 20625  70.9998  92.4194 0013447 164.2329 195.9215 14.15026017862234
COSMOS 2084             
1 20663U 90055A   26166.60081287  .00001852  00000+0  13975-3 0  9992
2 20663  62.7909   1.5057 0005568 276.6706  83.3760 15.06110553951063
SL-6 R/B(2)             
1 20666U 90055D   26166.58659662  .00001356  00000+0  11074-3 0  9997
2 20666  62.7824 280.8231 0040394   4.9051 355.2435 15.03998499952914
SL-8 R/B                
1 20775U 90078B   26166.45171400  .00017759  00000+0  50005-3 0  9999
2 20775  82.9002 163.2126 0351383  44.3117 318.5661 14.92249020823868
SL-8 R/B                
1 21088U 91006B   26166.56046454  .00000046  00000+0  30573-4 0  9991
2 21088  82.9424  97.2438 0023624 118.8787  53.8409 13.77505741777549
OKEAN-3                 
1 21397U 91039A   26166.60974944  .00002358  00000+0  16257-3 0  9999
2 21397  82.5158 241.9107 0014221   3.9963 356.1374 15.05316907879760
COSMOS 2151             
1 21422U 91042A   26166.59256747  .00001532  00000+0  11948-3 0  9999
2 21422  82.4960 349.2201 0013836  88.7563 271.5246 15.00434229877875
SL-14 R/B               
1 21423U 91042B   26166.39734643  .00000307  00000+0  35840-4 0  9991
2 21423  82.4927 128.5740 0015458 281.3732  78.5745 14.81901450867541
ERS-1                   
1 21574U 91050A   26166.56613867  .00000295  00000+0  10886-3 0  9998
2 21574  98.7798 187.2245 0030715 271.9523  87.8146 14.39517145829815
ARIANE 40 R/B           
1 21610U 91050F   26166.59282815  .00000240  00000+0  84207-4 0  9996
2 21610  98.1876 215.0718 0004198 124.7489 235.4098 14.42956231833116
INTERCOSMOS 25          
1 21819U 91086A   26165.47066083  .00000594  00000+0  11849-3 0  9992
2 21819  82.6052 251.4538 1484112 268.2589  74.8557 12.12192313508414
SL-8 R/B                
1 21876U 92008B   26166.61013832  .00000138  00000+0  12665-3 0  9992
2 21876  82.9263 194.9602 0033735 219.2116 258.0793 13.75976520722886
SL-8 R/B                
1 21938U 92020B   26166.54914137  .00000064  00000+0  50641-4 0  9990
2 21938  82.9306  81.0741 0029831  27.0551 145.9349 13.75548652714583
USA 81                  
1 21949U 92023A   26166.45858735  .00000151  00000+0  48319-4 0  9992
2 21949  85.0076  75.0051 0002765  86.0909 274.0600 14.32397757108784
COSMOS 2219             
1 22219U 92076A   26166.42218134  .00000231  00000+0  14591-3 0  9994
2 22219  71.0577 173.7616 0016515  47.0235 313.2269 14.14097903732191
SL-16 R/B               
1 22220U 92076B   26166.61968743  .00000124  00000+0  85601-4 0  9997
2 22220  71.0004 342.0832 0014625 300.6840 129.4727 14.16871654735700
COSMOS 2221             
1 22236U 92080A   26166.53430098  .00001243  00000+0  10696-3 0  9991
2 22236  82.5031 185.3482 0013144 218.1326 141.8967 14.96529468795420
SL-16 R/B               
1 22285U 92093B   26166.40503414 -.00000305  00000+0 -13177-3 0  9995
2 22285  71.0198 159.1328 0004067 191.5261 168.5769 14.15462073726985
COSMOS 2228             
1 22286U 92094A   26166.55092019  .00001836  00000+0  15459-3 0  9990
2 22286  82.5174 143.6101 0017043 338.0845  21.9646 14.97581369790705
SL-16 R/B               
1 22566U 93016B   26166.59696379  .00000312  00000+0  18435-3 0  9994
2 22566  71.0084   9.5476 0010305 185.7174 174.3833 14.15313291716021
COSMOS 2242             
1 22626U 93024A   26166.44277168  .00001461  00000+0  12477-3 0  9991
2 22626  82.5180 173.2119 0015513 342.4446  17.6238 14.96898533795015
SL-16 R/B               
1 22803U 93059B   26166.44308452  .00000055  00000+0  50832-4 0  9993
2 22803  70.9887 164.9817 0015158  56.9481 303.3096 14.17248127693385
ARIANE 40 R/B           
1 22830U 93061H   26166.59934893  .00000159  00000+0  74060-4 0  9990
2 22830  98.4820 233.4893 0010557   1.0820 359.0386 14.32907335708128
COSMOS 2278             
1 23087U 94023A   26166.54957019  .00000149  00000+0  10252-3 0  9995
2 23087  71.0549 330.3512 0010607 245.1615 114.8405 14.14397683658641
SL-16 R/B               
1 23088U 94023B   26166.55206771  .00000313  00000+0  18627-3 0  9996
2 23088  70.9994 225.3653 0002879 187.7857 172.3221 14.15024291659935
SL-16 R/B               
1 23343U 94074B   26166.60174513  .00000344  00000+0  52657-4 0  9996
2 23343  97.6991 193.3888 0005094 260.4685 213.6705 14.79501176701729
